WILDTRACKCUBE-SIMBA     
1 47941U 21022K   26061.77831130  .01594751  20789-2  13686-2 0  9993
2 47941  97.3814 343.4750 0007101 121.4058 238.7923 16.13912444274737
GREENCUBE (IO-117)      
1 53109U 22080E   26061.72898270 -.00000003  00000+0  00000+0 0  9990
2 53109  70.1617 335.2737 0009043 313.3588  46.6318  6.42583122 85227
SITRO-AIS 5 (KATYS)     
1 57176U 23091L   26062.19244433  .00015808  00000+0  59996-3 0  9999
2 57176  97.5196 125.2184 0013390 115.6700 244.5923 15.26847395148152
SITRO-AIS 6 (CHIRKIN)   
1 57192U 23091AC  26062.21519836  .00008854  00000+0  36435-3 0  9998
2 57192  97.5199 124.8625 0014200 115.7371 244.5334 15.24285192148137
SITRO-AIS 8 (ANOKHIN)   
1 57193U 23091AD  26062.18415303  .00017440  00000+0  61806-3 0  9990
2 57193  97.5189 126.4045 0012601 113.3507 246.9060 15.29091615148232
SITRO-AIS 7 (FARTUSHNIY)
1 57194U 23091AE  26062.19869031  .00007678  00000+0  31867-3 0  9999
2 57194  97.5200 124.7196 0013950 116.5267 243.7402 15.24044437148129
SITRO-AIS 10 (BURDAEV)  
1 57199U 23091AK  26062.16682291  .00023525  00000+0  70636-3 0  9998
2 57199  97.5202 130.4492 0008497  94.9619 265.2594 15.34406101148480
SITRO-AIS 9 (SHCHUKIN)  
1 57201U 23091AM  26062.16347338  .00022945  00000+0  69700-3 0  9997
2 57201  97.5201 130.2492 0008671  94.7537 265.4695 15.34040763148473
SITRO-AIS 12 (SMIRENNIY)
1 57204U 23091AQ  26062.17281993  .00023481  00000+0  70767-3 0  9996
2 57204  97.5212 130.6641 0008375  90.2388 269.9814 15.34289679148499
SITRO-AIS 11 (SHEFFER)  
1 57208U 23091AU  26062.21264822  .00024468  00000+0  72952-3 0  9991
2 57208  97.5210 130.8915 0008196  89.8387 270.3795 15.34622790148513
SITRO-AIS 25            
1 59066U 24039R   26062.21711228  .00004881  00000+0  38830-3 0  9999
2 59066  95.3945 162.3049 0146136 339.1324  20.3973 14.92562742108919
SITRO-AIS 26            
1 59067U 24039S   26062.20469856  .00004537  00000+0  36271-3 0  9991
2 59067  95.3945 162.2149 0146457 339.6155  19.9260 14.92375149108908
SITRO-AIS 27            
1 59068U 24039T   26062.20375899  .00004649  00000+0  36855-3 0  9997
2 59068  95.3945 162.4385 0145554 338.4490  21.0646 14.92769739108925
SITRO-AIS 28            
1 59071U 24039U   26062.25067613  .00003951  00000+0  31342-3 0  9999
2 59071  95.3947 162.5124 0145478 338.1664  21.3400 14.92804321108937
GRBBETA                 
1 60237U 24128C   26061.93357576  .00007151  00000+0  49181-3 0  9994
2 60237  61.9887 228.8093 0052095 112.8861 247.7743 15.05686920 90262
OOV-CUBE (TUBSAT-30)    
1 60240U 24128F   26061.97319205  .00004186  00000+0  32189-3 0  9994
2 60240  61.9933 235.7860 0055096 111.0571 249.6424 15.02185990 90153
