[{"OBJECT_NAME":"WILDTRACKCUBE-SIMBA","OBJECT_ID":"2021-022K","EPOCH":"2026-03-02T18:40:46.096320","MEAN_MOTION":16.13912444,"ECCENTRICITY":0.00071014,"INCLINATION":97.3814,"RA_OF_ASC_NODE":343.475,"ARG_OF_PERICENTER":121.4058,"MEAN_ANOMALY":238.7923,"EPHEMERIS_TYPE":0,"CLASSIFICATION_TYPE":"U","NORAD_CAT_ID":47941,"ELEMENT_SET_NO":999,"REV_AT_EPOCH":27473,"BSTAR":0.0013685892,"MEAN_MOTION_DOT":0.01594751,"MEAN_MOTION_DDOT":0.0020788521},{"OBJECT_NAME":"GREENCUBE (IO-117)","OBJECT_ID":"2022-080E","EPOCH":"2026-03-02T17:29:44.105280","MEAN_MOTION":6.42583122,"ECCENTRICITY":0.00090439,"INCLINATION":70.1617,"RA_OF_ASC_NODE":335.2737,"ARG_OF_PERICENTER":313.3588,"MEAN_ANOMALY":46.6318,"EPHEMERIS_TYPE":0,"CLASSIFICATION_TYPE":"U","NORAD_CAT_ID":53109,"ELEMENT_SET_NO":999,"REV_AT_EPOCH":8522,"BSTAR":0,"MEAN_MOTION_DOT":-3.0e-8,"MEAN_MOTION_DDOT":0},{"OBJECT_NAME":"SITRO-AIS 5 (KATYS)","OBJECT_ID":"2023-091L","EPOCH":"2026-03-03T04:37:07.190112","MEAN_MOTION":15.26847395,"ECCENTRICITY":0.001339,"INCLINATION":97.5196,"RA_OF_ASC_NODE":125.2184,"ARG_OF_PERICENTER":115.67,"MEAN_ANOMALY":244.5923,"EPHEMERIS_TYPE":0,"CLASSIFICATION_TYPE":"U","NORAD_CAT_ID":57176,"ELEMENT_SET_NO":999,"REV_AT_EPOCH":14815,"BSTAR":0.00059996,"MEAN_MOTION_DOT":0.00015808,"MEAN_MOTION_DDOT":0},{"OBJECT_NAME":"SITRO-AIS 6 (CHIRKIN)","OBJECT_ID":"2023-091AC","EPOCH":"2026-03-03T05:09:53.138304","MEAN_MOTION":15.24285192,"ECCENTRICITY":0.00142,"INCLINATION":97.5199,"RA_OF_ASC_NODE":124.8625,"ARG_OF_PERICENTER":115.7371,"MEAN_ANOMALY":244.5334,"EPHEMERIS_TYPE":0,"CLASSIFICATION_TYPE":"U","NORAD_CAT_ID":57192,"ELEMENT_SET_NO":999,"REV_AT_EPOCH":14813,"BSTAR":0.00036435,"MEAN_MOTION_DOT":8.854e-5,"MEAN_MOTION_DDOT":0},{"OBJECT_NAME":"SITRO-AIS 8 (ANOKHIN)","OBJECT_ID":"2023-091AD","EPOCH":"2026-03-03T04:25:10.821792","MEAN_MOTION":15.29091615,"ECCENTRICITY":0.0012601,"INCLINATION":97.5189,"RA_OF_ASC_NODE":126.4045,"ARG_OF_PERICENTER":113.3507,"MEAN_ANOMALY":246.906,"EPHEMERIS_TYPE":0,"CLASSIFICATION_TYPE":"U","NORAD_CAT_ID":57193,"ELEMENT_SET_NO":999,"REV_AT_EPOCH":14823,"BSTAR":0.00061806,"MEAN_MOTION_DOT":0.0001744,"MEAN_MOTION_DDOT":0},{"OBJECT_NAME":"SITRO-AIS 7 (FARTUSHNIY)","OBJECT_ID":"2023-091AE","EPOCH":"2026-03-03T04:46:06.842784","MEAN_MOTION":15.24044437,"ECCENTRICITY":0.001395,"INCLINATION":97.52,"RA_OF_ASC_NODE":124.7196,"ARG_OF_PERICENTER":116.5267,"MEAN_ANOMALY":243.7402,"EPHEMERIS_TYPE":0,"CLASSIFICATION_TYPE":"U","NORAD_CAT_ID":57194,"ELEMENT_SET_NO":999,"REV_AT_EPOCH":14812,"BSTAR":0.00031867,"MEAN_MOTION_DOT":7.678e-5,"MEAN_MOTION_DDOT":0},{"OBJECT_NAME":"SITRO-AIS 10 (BURDAEV)","OBJECT_ID":"2023-091AK","EPOCH":"2026-03-03T04:00:13.499424","MEAN_MOTION":15.34406101,"ECCENTRICITY":0.0008497,"INCLINATION":97.5202,"RA_OF_ASC_NODE":130.4492,"ARG_OF_PERICENTER":94.9619,"MEAN_ANOMALY":265.2594,"EPHEMERIS_TYPE":0,"CLASSIFICATION_TYPE":"U","NORAD_CAT_ID":57199,"ELEMENT_SET_NO":999,"REV_AT_EPOCH":14848,"BSTAR":0.00070636,"MEAN_MOTION_DOT":0.00023525,"MEAN_MOTION_DDOT":0},{"OBJECT_NAME":"SITRO-AIS 9 (SHCHUKIN)","OBJECT_ID":"2023-091AM","EPOCH":"2026-03-03T03:55:24.100032","MEAN_MOTION":15.34040763,"ECCENTRICITY":0.0008671,"INCLINATION":97.5201,"RA_OF_ASC_NODE":130.2492,"ARG_OF_PERICENTER":94.7537,"MEAN_ANOMALY":265.4695,"EPHEMERIS_TYPE":0,"CLASSIFICATION_TYPE":"U","NORAD_CAT_ID":57201,"ELEMENT_SET_NO":999,"REV_AT_EPOCH":14847,"BSTAR":0.000697,"MEAN_MOTION_DOT":0.00022945,"MEAN_MOTION_DDOT":0},{"OBJECT_NAME":"SITRO-AIS 12 (SMIRENNIY)","OBJECT_ID":"2023-091AQ","EPOCH":"2026-03-03T04:08:51.641952","MEAN_MOTION":15.34289679,"ECCENTRICITY":0.0008375,"INCLINATION":97.5212,"RA_OF_ASC_NODE":130.6641,"ARG_OF_PERICENTER":90.2388,"MEAN_ANOMALY":269.9814,"EPHEMERIS_TYPE":0,"CLASSIFICATION_TYPE":"U","NORAD_CAT_ID":57204,"ELEMENT_SET_NO":999,"REV_AT_EPOCH":14849,"BSTAR":0.00070767,"MEAN_MOTION_DOT":0.00023481,"MEAN_MOTION_DDOT":0},{"OBJECT_NAME":"SITRO-AIS 11 (SHEFFER)","OBJECT_ID":"2023-091AU","EPOCH":"2026-03-03T05:06:12.806208","MEAN_MOTION":15.3462279,"ECCENTRICITY":0.0008196,"INCLINATION":97.521,"RA_OF_ASC_NODE":130.8915,"ARG_OF_PERICENTER":89.8387,"MEAN_ANOMALY":270.3795,"EPHEMERIS_TYPE":0,"CLASSIFICATION_TYPE":"U","NORAD_CAT_ID":57208,"ELEMENT_SET_NO":999,"REV_AT_EPOCH":14851,"BSTAR":0.00072952,"MEAN_MOTION_DOT":0.00024468,"MEAN_MOTION_DDOT":0},{"OBJECT_NAME":"SITRO-AIS 25","OBJECT_ID":"2024-039R","EPOCH":"2026-03-03T05:12:38.500992","MEAN_MOTION":14.92562742,"ECCENTRICITY":0.0146136,"INCLINATION":95.3945,"RA_OF_ASC_NODE":162.3049,"ARG_OF_PERICENTER":339.1324,"MEAN_ANOMALY":20.3973,"EPHEMERIS_TYPE":0,"CLASSIFICATION_TYPE":"U","NORAD_CAT_ID":59066,"ELEMENT_SET_NO":999,"REV_AT_EPOCH":10891,"BSTAR":0.0003883,"MEAN_MOTION_DOT":4.881e-5,"MEAN_MOTION_DDOT":0},{"OBJECT_NAME":"SITRO-AIS 26","OBJECT_ID":"2024-039S","EPOCH":"2026-03-03T04:54:45.955584","MEAN_MOTION":14.92375149,"ECCENTRICITY":0.0146457,"INCLINATION":95.3945,"RA_OF_ASC_NODE":162.2149,"ARG_OF_PERICENTER":339.6155,"MEAN_ANOMALY":19.926,"EPHEMERIS_TYPE":0,"CLASSIFICATION_TYPE":"U","NORAD_CAT_ID":59067,"ELEMENT_SET_NO":999,"REV_AT_EPOCH":10890,"BSTAR":0.00036271,"MEAN_MOTION_DOT":4.537e-5,"MEAN_MOTION_DDOT":0},{"OBJECT_NAME":"SITRO-AIS 27","OBJECT_ID":"2024-039T","EPOCH":"2026-03-03T04:53:24.776736","MEAN_MOTION":14.92769739,"ECCENTRICITY":0.0145554,"INCLINATION":95.3945,"RA_OF_ASC_NODE":162.4385,"ARG_OF_PERICENTER":338.449,"MEAN_ANOMALY":21.0646,"EPHEMERIS_TYPE":0,"CLASSIFICATION_TYPE":"U","NORAD_CAT_ID":59068,"ELEMENT_SET_NO":999,"REV_AT_EPOCH":10892,"BSTAR":0.00036855,"MEAN_MOTION_DOT":4.649e-5,"MEAN_MOTION_DDOT":0},{"OBJECT_NAME":"SITRO-AIS 28","OBJECT_ID":"2024-039U","EPOCH":"2026-03-03T06:00:58.417632","MEAN_MOTION":14.92804321,"ECCENTRICITY":0.0145478,"INCLINATION":95.3947,"RA_OF_ASC_NODE":162.5124,"ARG_OF_PERICENTER":338.1664,"MEAN_ANOMALY":21.34,"EPHEMERIS_TYPE":0,"CLASSIFICATION_TYPE":"U","NORAD_CAT_ID":59071,"ELEMENT_SET_NO":999,"REV_AT_EPOCH":10893,"BSTAR":0.00031342,"MEAN_MOTION_DOT":3.951e-5,"MEAN_MOTION_DDOT":0},{"OBJECT_NAME":"GRBBETA","OBJECT_ID":"2024-128C","EPOCH":"2026-03-02T22:24:20.945664","MEAN_MOTION":15.0568692,"ECCENTRICITY":0.0052095,"INCLINATION":61.9887,"RA_OF_ASC_NODE":228.8093,"ARG_OF_PERICENTER":112.8861,"MEAN_ANOMALY":247.7743,"EPHEMERIS_TYPE":0,"CLASSIFICATION_TYPE":"U","NORAD_CAT_ID":60237,"ELEMENT_SET_NO":999,"REV_AT_EPOCH":9026,"BSTAR":0.00049181,"MEAN_MOTION_DOT":7.151e-5,"MEAN_MOTION_DDOT":0},{"OBJECT_NAME":"OOV-CUBE (TUBSAT-30)","OBJECT_ID":"2024-128F","EPOCH":"2026-03-02T23:21:23.793120","MEAN_MOTION":15.0218599,"ECCENTRICITY":0.0055096,"INCLINATION":61.9933,"RA_OF_ASC_NODE":235.786,"ARG_OF_PERICENTER":111.0571,"MEAN_ANOMALY":249.6424,"EPHEMERIS_TYPE":0,"CLASSIFICATION_TYPE":"U","NORAD_CAT_ID":60240,"ELEMENT_SET_NO":999,"REV_AT_EPOCH":9015,"BSTAR":0.00032189,"MEAN_MOTION_DOT":4.186e-5,"MEAN_MOTION_DDOT":0}]
